[{"OBJECT_NAME":"TOMORROW-S2","OBJECT_ID":"2024-149T","EPOCH":"2026-03-09T18:02:42.746496","MEAN_MOTION":15.30674935,"ECCENTRICITY":0.0001648,"INCLINATION":97.3857,"RA_OF_ASC_NODE":150.0385,"ARG_OF_PERICENTER":234.3331,"MEAN_ANOMALY":125.7757,"EPHEMERIS_TYPE":0,"CLASSIFICATION_TYPE":"U","NORAD_CAT_ID":60485,"ELEMENT_SET_NO":999,"REV_AT_EPOCH":8686,"BSTAR":0.00027683033,"MEAN_MOTION_DOT":8.133e-5,"MEAN_MOTION_DDOT":0},{"OBJECT_NAME":"STARLINK-35819","OBJECT_ID":"2025-247W","EPOCH":"2026-03-09T15:01:51.234816","MEAN_MOTION":15.30204109,"ECCENTRICITY":0.0001161,"INCLINATION":53.1577,"RA_OF_ASC_NODE":191.7561,"ARG_OF_PERICENTER":55.208,"MEAN_ANOMALY":304.903,"EPHEMERIS_TYPE":0,"CLASSIFICATION_TYPE":"U","NORAD_CAT_ID":66285,"ELEMENT_SET_NO":999,"REV_AT_EPOCH":2102,"BSTAR":0.0006358,"MEAN_MOTION_DOT":0.00018521,"MEAN_MOTION_DDOT":0}]
